start=new Date('2022-06-24T00:00:00.000Z').valueOf();
sats=[{"MEAN_ELEMENT_THEORY":"SGP4","RCS_SIZE":"LARGE","EPOCH":"2022-06-23T11:05:58.416288","PERIOD":"95.593","INCLINATION":"53.0551","RA_OF_ASC_NODE":"350.4830","MEAN_MOTION_DOT":"-0.00000483","GP_ID":"206685629","ARG_OF_PERICENTER":"61.3390","OBJECT_ID":"2021-005M","MEAN_MOTION":"15.06391866","SITE":"AFETR","LAUNCH_DATE":"2021-01-20","EPHEMERIS_TYPE":"0","CENTER_NAME":"EARTH","ELEMENT_SET_NO":"999","TLE_LINE2":"2 47360  53.0551 350.4830 0001595  61.3390 298.7760 15.06391866 79275","DECAY_DATE":null,"TLE_LINE1":"1 47360U 21005M   22174.46248167 -.00000483  00000-0 -13499-4 0  9999","OBJECT_NAME":"STARLINK-2070","TIME_SYSTEM":"UTC","NORAD_CAT_ID":"47360","ECCENTRICITY":"0.00015950","SEMIMAJOR_AXIS":"6925.373","REF_FRAME":"TEME","APOAPSIS":"548.343","MEAN_MOTION_DDOT":"0.0000000000000","PERIAPSIS":"546.134","OBJECT_TYPE":"PAYLOAD","MEAN_ANOMALY":"298.7760","FILE":"3500539","REV_AT_EPOCH":"7927","BSTAR":"-0.00001349900000","CLASSIFICATION_TYPE":"U","COUNTRY_CODE":"US"},{"CLASSIFICATION_TYPE":"U","COUNTRY_CODE":"US","FILE":"3500616","BSTAR":"0.00004819800000","REV_AT_EPOCH":"8019","OBJECT_TYPE":"PAYLOAD","MEAN_ANOMALY":"284.2371","PERIAPSIS":"546.033","MEAN_MOTION_DDOT":"0.0000000000000","APOAPSIS":"548.397","ECCENTRICITY":"0.00017070","NORAD_CAT_ID":"47361","REF_FRAME":"TEME","SEMIMAJOR_AXIS":"6925.350","TIME_SYSTEM":"UTC","DECAY_DATE":null,"OBJECT_NAME":"STARLINK-2071","TLE_LINE1":"1 47361U 21005N   22174.78452662  .00000436  00000-0  48198-4 0  9992","TLE_LINE2":"2 47361  53.0553 354.0323 0001707  75.8808 284.2371 15.06399591 80198","LAUNCH_DATE":"2021-01-20","ELEMENT_SET_NO":"999","EPHEMERIS_TYPE":"0","CENTER_NAME":"EARTH","ARG_OF_PERICENTER":"75.8808","GP_ID":"206690130","OBJECT_ID":"2021-005N","MEAN_MOTION":"15.06399591","SITE":"AFETR","MEAN_MOTION_DOT":"0.00000436","INCLINATION":"53.0553","PERIOD":"95.592","RA_OF_ASC_NODE":"354.0323","MEAN_ELEMENT_THEORY":"SGP4","RCS_SIZE":"LARGE","EPOCH":"2022-06-23T18:49:43.099968"},{"PERIOD":"95.592","INCLINATION":"53.0564","RA_OF_ASC_NODE":"24.1220","MEAN_ELEMENT_THEORY":"SGP4","RCS_SIZE":"LARGE","EPOCH":"2022-06-23T18:19:11.983296","MEAN_MOTION_DOT":"0.00000476","LAUNCH_DATE":"2021-01-20","EPHEMERIS_TYPE":"0","CENTER_NAME":"EARTH","ELEMENT_SET_NO":"999","ARG_OF_PERICENTER":"73.5977","GP_ID":"206689955","OBJECT_ID":"2021-005P","SITE":"AFETR","MEAN_MOTION":"15.06403557","DECAY_DATE":null,"TLE_LINE1":"1 47362U 21005P   22174.76333314  .00000476  00000-0  50862-4 0  9998","OBJECT_NAME":"STARLINK-2076","TLE_LINE2":"2 47362  53.0564  24.1220 0001629  73.5977 286.5191 15.06403557 78827","NORAD_CAT_ID":"47362","ECCENTRICITY":"0.00016290","REF_FRAME":"TEME","SEMIMAJOR_AXIS":"6925.338","TIME_SYSTEM":"UTC","MEAN_ANOMALY":"286.5191","OBJECT_TYPE":"PAYLOAD","APOAPSIS":"548.331","MEAN_MOTION_DDOT":"0.0000000000000","PERIAPSIS":"546.075","CLASSIFICATION_TYPE":"U","COUNTRY_CODE":"US","FILE":"3500616","REV_AT_EPOCH":"7882","BSTAR":"0.00005086200000"},{"EPHEMERIS_TYPE":"0","CENTER_NAME":"EARTH","ELEMENT_SET_NO":"999","LAUNCH_DATE":"2021-01-20","MEAN_MOTION":"15.06403229","SITE":"AFETR","GP_ID":"206690133","OBJECT_ID":"2021-005Q","ARG_OF_PERICENTER":"70.6389","TLE_LINE1":"1 47363U 21005Q   22174.70067314  .00001104  00000-0  93010-4 0  9998","OBJECT_NAME":"STARLINK-2077","DECAY_DATE":null,"TLE_LINE2":"2 47363  53.0563  24.3893 0001512  70.6389 289.4764 15.06403229 78814","RA_OF_ASC_NODE":"24.3893","PERIOD":"95.592","INCLINATION":"53.0563","EPOCH":"2022-06-23T16:48:58.159296","RCS_SIZE":"LARGE","MEAN_ELEMENT_THEORY":"SGP4","MEAN_MOTION_DOT":"0.00001104","MEAN_ANOMALY":"289.4764","OBJECT_TYPE":"PAYLOAD","APOAPSIS":"548.251","MEAN_MOTION_DDOT":"0.0000000000000","PERIAPSIS":"546.157","COUNTRY_CODE":"US","CLASSIFICATION_TYPE":"U","REV_AT_EPOCH":"7881","BSTAR":"0.00009301000000","FILE":"3500616","SEMIMAJOR_AXIS":"6925.339","REF_FRAME":"TEME","ECCENTRICITY":"0.00015120","NORAD_CAT_ID":"47363","TIME_SYSTEM":"UTC"},{"REF_FRAME":"TEME","SEMIMAJOR_AXIS":"6679.720","ECCENTRICITY":"0.00128390","NORAD_CAT_ID":"47365","TIME_SYSTEM":"UTC","MEAN_ANOMALY":"307.0518","OBJECT_TYPE":"PAYLOAD","APOAPSIS":"310.161","MEAN_MOTION_DDOT":"0.0000276680000","PERIAPSIS":"293.009","COUNTRY_CODE":"US","CLASSIFICATION_TYPE":"U","REV_AT_EPOCH":"8266","BSTAR":"0.00069126000000","FILE":"3500754","RA_OF_ASC_NODE":"155.9733","PERIOD":"90.552","INCLINATION":"53.0249","EPOCH":"2022-06-23T19:40:38.855424","RCS_SIZE":"LARGE","MEAN_ELEMENT_THEORY":"SGP4","MEAN_MOTION_DOT":"0.00212998","EPHEMERIS_TYPE":"0","CENTER_NAME":"EARTH","ELEMENT_SET_NO":"999","LAUNCH_DATE":"2021-01-20","MEAN_MOTION":"15.90250012","SITE":"AFETR","GP_ID":"206692990","OBJECT_ID":"2021-005S","ARG_OF_PERICENTER":"53.1683","TLE_LINE1":"1 47365U 21005S   22174.81989416  .00212998  27668-4  69126-3 0  9996","OBJECT_NAME":"STARLINK-2080","DECAY_DATE":null,"TLE_LINE2":"2 47365  53.0249 155.9733 0012839  53.1683 307.0518 15.90250012 82663"},{"CLASSIFICATION_TYPE":"U","COUNTRY_CODE":"US","FILE":"3500539","BSTAR":"0.00008505000000","REV_AT_EPOCH":"7876","MEAN_ANOMALY":"286.5059","OBJECT_TYPE":"PAYLOAD","MEAN_MOTION_DDOT":"0.0000000000000","PERIAPSIS":"546.195","APOAPSIS":"548.208","NORAD_CAT_ID":"47366","ECCENTRICITY":"0.00014530","REF_FRAME":"TEME","SEMIMAJOR_AXIS":"6925.337","TIME_SYSTEM":"UTC","DECAY_DATE":null,"OBJECT_NAME":"STARLINK-2081","TLE_LINE1":"1 47366U 21005T   22174.39473587  .00000986  00000-0  85050-4 0  9991","TLE_LINE2":"2 47366  53.0559  25.7796 0001453  73.6089 286.5059 15.06403930 78761","LAUNCH_DATE":"2021-01-20","ELEMENT_SET_NO":"999","EPHEMERIS_TYPE":"0","CENTER_NAME":"EARTH","OBJECT_ID":"2021-005T","GP_ID":"206684379","ARG_OF_PERICENTER":"73.6089","SITE":"AFETR","MEAN_MOTION":"15.06403930","MEAN_MOTION_DOT":"0.00000986","INCLINATION":"53.0559","PERIOD":"95.592","RA_OF_ASC_NODE":"25.7796","MEAN_ELEMENT_THEORY":"SGP4","EPOCH":"2022-06-23T09:28:25.179168","RCS_SIZE":"LARGE"},{"APOAPSIS":"548.289","MEAN_MOTION_DDOT":"0.0000000000000","PERIAPSIS":"546.156","MEAN_ANOMALY":"304.0322","OBJECT_TYPE":"PAYLOAD","REV_AT_EPOCH":"7875","BSTAR":"0.00003721700000","FILE":"3500539","COUNTRY_CODE":"US","CLASSIFICATION_TYPE":"U","TIME_SYSTEM":"UTC","REF_FRAME":"TEME","SEMIMAJOR_AXIS":"6925.358","ECCENTRICITY":"0.00015400","NORAD_CAT_ID":"47367","MEAN_MOTION":"15.06397014","SITE":"AFETR","GP_ID":"206684628","OBJECT_ID":"2021-005U","ARG_OF_PERICENTER":"56.0813","CENTER_NAME":"EARTH","EPHEMERIS_TYPE":"0","ELEMENT_SET_NO":"999","LAUNCH_DATE":"2021-01-20","TLE_LINE2":"2 47367  53.0554  26.2562 0001540  56.0813 304.0322 15.06397014 78754","TLE_LINE1":"1 47367U 21005U   22174.28784820  .00000273  00000-0  37217-4 0  9996","OBJECT_NAME":"STARLINK-2082","DECAY_DATE":null,"RCS_SIZE":"LARGE","EPOCH":"2022-06-23T06:54:30.084480","MEAN_ELEMENT_THEORY":"SGP4","RA_OF_ASC_NODE":"26.2562","PERIOD":"95.592","INCLINATION":"53.0554","MEAN_MOTION_DOT":"0.00000273"},{"SEMIMAJOR_AXIS":"6925.347","REF_FRAME":"TEME","NORAD_CAT_ID":"47368","ECCENTRICITY":"0.00015610","TIME_SYSTEM":"UTC","MEAN_ANOMALY":"282.8762","OBJECT_TYPE":"PAYLOAD","MEAN_MOTION_DDOT":"0.0000000000000","PERIAPSIS":"546.131","APOAPSIS":"548.293","COUNTRY_CODE":"US","CLASSIFICATION_TYPE":"U","BSTAR":"0.00003360800000","REV_AT_EPOCH":"7975","FILE":"3500617","RA_OF_ASC_NODE":"24.4927","INCLINATION":"53.0560","PERIOD":"95.592","RCS_SIZE":"LARGE","EPOCH":"2022-06-23T16:17:07.469088","MEAN_ELEMENT_THEORY":"SGP4","MEAN_MOTION_DOT":"0.00000219","ELEMENT_SET_NO":"999","EPHEMERIS_TYPE":"0","CENTER_NAME":"EARTH","LAUNCH_DATE":"2021-01-20","MEAN_MOTION":"15.06400402","SITE":"AFETR","OBJECT_ID":"2021-005V","GP_ID":"206689979","ARG_OF_PERICENTER":"77.2402","OBJECT_NAME":"STARLINK-2084","TLE_LINE1":"1 47368U 21005V   22174.67855867  .00000219  00000-0  33608-4 0  9990","DECAY_DATE":null,"TLE_LINE2":"2 47368  53.0560  24.4927 0001561  77.2402 282.8762 15.06400402 79757"},{"COUNTRY_CODE":"US","CLASSIFICATION_TYPE":"U","REV_AT_EPOCH":"7905","BSTAR":"0.00001382700000","FILE":"3500539","OBJECT_TYPE":"PAYLOAD","MEAN_ANOMALY":"304.4429","APOAPSIS":"548.279","MEAN_MOTION_DDOT":"0.0000000000000","PERIAPSIS":"546.162","SEMIMAJOR_AXIS":"6925.355","REF_FRAME":"TEME","NORAD_CAT_ID":"47369","ECCENTRICITY":"0.00015280","TIME_SYSTEM":"UTC","TLE_LINE1":"1 47369U 21005W   22174.41775406 -.00000076  00000-0  13827-4 0  9996","OBJECT_NAME":"STARLINK-2085","DECAY_DATE":null,"TLE_LINE2":"2 47369  53.0550   5.6614 0001528  55.6704 304.4429 15.06397749 79052","EPHEMERIS_TYPE":"0","CENTER_NAME":"EARTH","ELEMENT_SET_NO":"999","LAUNCH_DATE":"2021-01-20","SITE":"AFETR","MEAN_MOTION":"15.06397749","ARG_OF_PERICENTER":"55.6704","GP_ID":"206685630","OBJECT_ID":"2021-005W","MEAN_MOTION_DOT":"-0.00000076","RA_OF_ASC_NODE":"5.6614","PERIOD":"95.592","INCLINATION":"53.0550","EPOCH":"2022-06-23T10:01:33.950784","RCS_SIZE":"LARGE","MEAN_ELEMENT_THEORY":"SGP4"},{"TIME_SYSTEM":"UTC","REF_FRAME":"TEME","SEMIMAJOR_AXIS":"6925.332","ECCENTRICITY":"0.00016210","NORAD_CAT_ID":"47370","APOAPSIS":"548.320","MEAN_MOTION_DDOT":"0.0000000000000","PERIAPSIS":"546.074","OBJECT_TYPE":"PAYLOAD","MEAN_ANOMALY":"302.2371","REV_AT_EPOCH":"7939","BSTAR":"0.00010595000000","FILE":"3500617","COUNTRY_CODE":"US","CLASSIFICATION_TYPE":"U","RCS_SIZE":"LARGE","EPOCH":"2022-06-23T18:35:07.026432","MEAN_ELEMENT_THEORY":"SGP4","RA_OF_ASC_NODE":"344.0772","PERIOD":"95.592","INCLINATION":"53.0562","MEAN_MOTION_DOT":"0.00001297","MEAN_MOTION":"15.06405388","SITE":"AFETR","ARG_OF_PERICENTER":"57.8775","GP_ID":"206689977","OBJECT_ID":"2021-005X","EPHEMERIS_TYPE":"0","CENTER_NAME":"EARTH","ELEMENT_SET_NO":"999","LAUNCH_DATE":"2021-01-20","TLE_LINE2":"2 47370  53.0562 344.0772 0001621  57.8775 302.2371 15.06405388 79396","TLE_LINE1":"1 47370U 21005X   22174.77438688  .00001297  00000-0  10595-3 0  9998","OBJECT_NAME":"STARLINK-2086","DECAY_DATE":null}];
